[{"OBJECT_NAME":"STARLINK-32772","OBJECT_ID":"2025-034E","EPOCH":"2026-03-09T22:16:01.868160","MEAN_MOTION":15.30212099,"ECCENTRICITY":9.635e-5,"INCLINATION":53.1583,"RA_OF_ASC_NODE":256.9941,"ARG_OF_PERICENTER":72.0793,"MEAN_ANOMALY":288.0313,"EPHEMERIS_TYPE":0,"CLASSIFICATION_TYPE":"U","NORAD_CAT_ID":63033,"ELEMENT_SET_NO":999,"REV_AT_EPOCH":5912,"BSTAR":0.00077263281,"MEAN_MOTION_DOT":0.00022602,"MEAN_MOTION_DDOT":0},{"OBJECT_NAME":"CZ-2C R\/B","OBJECT_ID":"2024-203E","EPOCH":"2026-03-09T21:58:29.775360","MEAN_MOTION":15.29569733,"ECCENTRICITY":0.00782655,"INCLINATION":97.3142,"RA_OF_ASC_NODE":134.7565,"ARG_OF_PERICENTER":232.0261,"MEAN_ANOMALY":127.3893,"EPHEMERIS_TYPE":0,"CLASSIFICATION_TYPE":"U","NORAD_CAT_ID":61873,"ELEMENT_SET_NO":999,"REV_AT_EPOCH":7395,"BSTAR":0.00041889655,"MEAN_MOTION_DOT":0.00013106,"MEAN_MOTION_DDOT":0}]
